[{"OBJECT_NAME":"STARLINK-1407","OBJECT_ID":"2020-035AY","EPOCH":"2026-03-09T21:23:00.001536","MEAN_MOTION":15.59976169,"ECCENTRICITY":0.00103838,"INCLINATION":53.0348,"RA_OF_ASC_NODE":314.7811,"ARG_OF_PERICENTER":106.6316,"MEAN_ANOMALY":253.5837,"EPHEMERIS_TYPE":0,"CLASSIFICATION_TYPE":"U","NORAD_CAT_ID":45703,"ELEMENT_SET_NO":999,"REV_AT_EPOCH":32032,"BSTAR":0.0017348745,"MEAN_MOTION_DOT":0.00145077,"MEAN_MOTION_DDOT":0},{"OBJECT_NAME":"STARLINK-2225","OBJECT_ID":"2021-041X","EPOCH":"2026-03-10T00:00:02.999808","MEAN_MOTION":15.27069763,"ECCENTRICITY":0.00014642,"INCLINATION":53.1456,"RA_OF_ASC_NODE":99.5289,"ARG_OF_PERICENTER":89.1304,"MEAN_ANOMALY":151.4925,"EPHEMERIS_TYPE":0,"CLASSIFICATION_TYPE":"U","NORAD_CAT_ID":48574,"ELEMENT_SET_NO":999,"REV_AT_EPOCH":574,"BSTAR":0.059549049,"MEAN_MOTION_DOT":0.01753094,"MEAN_MOTION_DDOT":0}]
